{"City": "Shenzhen", "Fax": "", "Country/Region": "China (Mainland)", "name": "Ms. Lorna Liao", "Zip": "518000", "Telephone": "0086-0755-36648233", "Mobile Phone": "15012971973", "Address": "Bantian", "Province/State": "Guangdong"}
{"City": "Shenzhen", "Fax": "", "Country/Region": "China (Mainland)", "name": "Ms. Fiona Li", "Zip": "518102", "Telephone": "0086-0755-36648233", "Mobile Phone": "15012971973", "Address": "8th floor,Siji building,gushu 2nd road,gushu industrial area,xixiang town,baoan district", "Province/State": "Guangdong"}
{"City": "shenzhen", "Fax": "", "Country/Region": "China (Mainland)", "name": "Ms. vicky zhang", "Zip": "518118", "Telephone": "0086-0755-36648233", "Mobile Phone": "15012971973", "Address": "No.2 alley 3 henglingtang industrial park pingshan district", "Province/State": "Guangdong"}
{"City": "shenzhen", "Fax": "", "Country/Region": "China (Mainland)", "name": "Mr. andy yao", "Zip": "None", "Telephone": "0086-0755-36648233", "Mobile Phone": "15012971973", "Address": "songyuan ", "Province/State": "Guangdong"}
{"City": "Shenzhen", "Fax": "", "Country/Region": "China (Mainland)", "name": "Ms. May Zhong", "Zip": "518101", "Telephone": "0086-0755-36648233", "Mobile Phone": "15012971973", "Address": "3A08 F/4,Block B, Baoyuan Huafeng Economic Building, Xixiang Town, Bao'an Shenzhen", "Province/State": "Guangdong"}
{"City": "GuangZhou", "Fax": "", "Country/Region": "China (Mainland)", "name": "Ms. Celia Leung", "Zip": "510010", "Telephone": "0086-0755-36648233", "Mobile Phone": "15012971973", "Address": "Room2020-2021,BaiHui Plaza,Zhong Shan Wu Road, No.193, Yue Xiu District,Guang Zhou", "Province/State": "Guangdong"}
{"City": "Shenzhen", "Fax": "", "Country/Region": "China (Mainland)", "name": "Ms. Aston Y", "Zip": "510812", "Telephone": "0086-0755-36648233", "Mobile Phone": "15012971973", "Address": "No.37 ,Furong Road,Gushu Village, Bao'an District,Shenzhen,China", "Province/State": "Guangdong"}
{"City": "Shenzhen", "Fax": "", "Country/Region": "China (Mainland)", "name": "Ms. Nadia Gong", "Zip": "518000", "Telephone": "0086-0755-36648233", "Mobile Phone": "15012971973", "Address": "4F, Building D, ShanHai Industrial Park, Gangtou XinDi Road,  Bantian Street, LongGang", "Province/State": "Guangdong"}
{"City": "Shenzhen", "Fax": "", "Country/Region": "China (Mainland)", "name": "Ms. Monica Calire", "Zip": "None", "Telephone": "0086-0755-36648233", "Mobile Phone": "15012971973", "Address": "Bantian", "Province/State": "Guangdong"}
{"City": "Dongguan", "Fax": "", "Country/Region": "China (Mainland)", "name": "Mr. Ryan Huang", "Zip": "None", "Telephone": "0086-0755-36648233", "Mobile Phone": "15012971973", "Address": "Room 313, Building B1, Tianan Cyber Park, 1 Gold Road, Nancheng District", "Province/State": "Guangdong"}
{"City": "SHENZHEN ", "Fax": "", "Country/Region": "China (Mainland)", "name": "Mr. David Cui", "Zip": "518031", "Telephone": "0086-0755-36648233", "Mobile Phone": "15012971973", "Address": "SEG Market, Huaqiang North, FuTian, SHENZHEN", "Province/State": "Guangdong"}
{"City": "dongyang", "Fax": "", "Country/Region": "China (Mainland)", "name": "Mr. harry huang", "Zip": "322100", "Telephone": "0086-0755-36648233", "Mobile Phone": "15012971973", "Address": "unit 1415 zijing building 4 baiyun street xiakunxi", "Province/State": "Zhejiang"}
